CZ-2F R/B               
1 67690U 26024B   26043.68605831  .00010419  00000+0  20043-3 0  9990
2 67690  49.9859 139.9043 0177333 171.2576 189.1542 15.33223548   855
CZ-2F DEB               
1 67691U 26024C   26045.44691367  .00676365  10278-4  92624-3 0  9991
2 67691  49.9092 129.5730 0258765 185.3296 174.4910 15.65142024  1139
CZ-2F DEB               
1 67692U 26024D   26043.47249242  .00008960  00000+0  18237-3 0  9999
2 67692  50.2497 141.4689 0244463 185.6574 174.1612 15.21014172   827
STARLINK-36748          
1 67693U 26025A   26045.19362417 -.00393472  60898-4 -59444-3 0  9990
2 67693  97.2813 155.3420 0000900  51.7751 308.3611 16.04555506  2223
STARLINK-36753          
1 67694U 26025B   26045.25387436  .00555075  14883-3  81573-3 0  9993
2 67694  97.2822 155.4135 0003532 112.3543 247.8113 16.05078041  2246
STARLINK-36750          
1 67695U 26025C   26045.06841658  .00619808  18707-3  93100-3 0  9997
2 67695  97.2817 155.2077 0001124 137.7676 222.3691 16.04736633  2209
STARLINK-36401          
1 67696U 26025D   26042.66668981 -.00784211  23475-3 -86759-3 0  9990
2 67696  97.2834 152.5655 0001311  70.6850  83.4290 16.09617568  1668
STARLINK-36704          
1 67697U 26025E   26042.66668981 -.00766309  22583-3 -83083-3 0  9995
2 67697  97.2831 152.5663 0001357  56.7193  99.2680 16.09927722  1664
STARLINK-36697          
1 67698U 26025F   26045.25303634  .00624914  19262-3  89804-3 0  9995
2 67698  97.2812 155.4142 0003873 114.4445 245.7241 16.05454148  2233
STARLINK-36716          
1 67699U 26025G   26045.25262921  .00541485  14252-3  76966-3 0  9999
2 67699  97.2803 155.4142 0002113 350.8311   9.2932 16.05634695  2246
STARLINK-36712          
1 67700U 26025H   26042.66668981 -.00742587  21415-3 -78465-3 0  9993
2 67700  97.2831 152.5673 0001185  58.2875 100.2798 16.10321202  1614
STARLINK-36713          
1 67701U 26025J   26042.66668981 -.00744148  21540-3 -77892-3 0  9991
2 67701  97.2829 152.5680 0001546  59.7434  99.7040 16.10465067  1821
