CCSDS_OMM_VERS = 2.0
CREATION_DATE  = 
ORIGINATOR     = 

OBJECT_NAME    = CZ-2F R/B
OBJECT_ID      = 2026-024B
CENTER_NAME    = EARTH
REF_FRAME      = TEME
TIME_SYSTEM    = UTC
MEAN_ELEMENT_THEORY = SGP/SGP4

EPOCH          = 2026-02-12T16:27:55.437984
MEAN_MOTION    = 15.33223548
ECCENTRICITY   = .01773338
INCLINATION    = 49.9859
RA_OF_ASC_NODE = 139.9043
ARG_OF_PERICENTER = 171.2576
MEAN_ANOMALY   = 189.1542

EPHEMERIS_TYPE = 0
CLASSIFICATION_TYPE = U
NORAD_CAT_ID   = 67690
ELEMENT_SET_NO = 999
REV_AT_EPOCH   = 85
BSTAR          = .200431E-3
MEAN_MOTION_DOT = .10419E-3
MEAN_MOTION_DDOT = 0

CCSDS_OMM_VERS = 2.0
CREATION_DATE  = 
ORIGINATOR     = 

OBJECT_NAME    = CZ-2F DEB
OBJECT_ID      = 2026-024C
CENTER_NAME    = EARTH
REF_FRAME      = TEME
TIME_SYSTEM    = UTC
MEAN_ELEMENT_THEORY = SGP/SGP4

EPOCH          = 2026-02-14T10:43:33.341088
MEAN_MOTION    = 15.65142024
ECCENTRICITY   = .0258765
INCLINATION    = 49.9092
RA_OF_ASC_NODE = 129.5730
ARG_OF_PERICENTER = 185.3296
MEAN_ANOMALY   = 174.4910

EPHEMERIS_TYPE = 0
CLASSIFICATION_TYPE = U
NORAD_CAT_ID   = 67691
ELEMENT_SET_NO = 999
REV_AT_EPOCH   = 113
BSTAR          = .92624E-3
MEAN_MOTION_DOT = .676365E-2
MEAN_MOTION_DDOT = .10278E-4

CCSDS_OMM_VERS = 2.0
CREATION_DATE  = 
ORIGINATOR     = 

OBJECT_NAME    = CZ-2F DEB
OBJECT_ID      = 2026-024D
CENTER_NAME    = EARTH
REF_FRAME      = TEME
TIME_SYSTEM    = UTC
MEAN_ELEMENT_THEORY = SGP/SGP4

EPOCH          = 2026-02-12T11:20:23.345088
MEAN_MOTION    = 15.21014172
ECCENTRICITY   = .02444636
INCLINATION    = 50.2497
RA_OF_ASC_NODE = 141.4689
ARG_OF_PERICENTER = 185.6574
MEAN_ANOMALY   = 174.1612

EPHEMERIS_TYPE = 0
CLASSIFICATION_TYPE = U
NORAD_CAT_ID   = 67692
ELEMENT_SET_NO = 999
REV_AT_EPOCH   = 82
BSTAR          = .18236751E-3
MEAN_MOTION_DOT = .896E-4
MEAN_MOTION_DDOT = 0

CCSDS_OMM_VERS = 2.0
CREATION_DATE  = 
ORIGINATOR     = 

OBJECT_NAME    = STARLINK-36748
OBJECT_ID      = 2026-025A
CENTER_NAME    = EARTH
REF_FRAME      = TEME
TIME_SYSTEM    = UTC
MEAN_ELEMENT_THEORY = SGP/SGP4

EPOCH          = 2026-02-14T04:38:49.128288
MEAN_MOTION    = 16.04555506
ECCENTRICITY   = .00009002
INCLINATION    = 97.2813
RA_OF_ASC_NODE = 155.3420
ARG_OF_PERICENTER = 51.7751
MEAN_ANOMALY   = 308.3611

EPHEMERIS_TYPE = 0
CLASSIFICATION_TYPE = U
NORAD_CAT_ID   = 67693
ELEMENT_SET_NO = 999
REV_AT_EPOCH   = 222
BSTAR          = -.594436E-3
MEAN_MOTION_DOT = -.393472E-2
MEAN_MOTION_DDOT = .6089844E-4

CCSDS_OMM_VERS = 2.0
CREATION_DATE  = 
ORIGINATOR     = 

OBJECT_NAME    = STARLINK-36753
OBJECT_ID      = 2026-025B
CENTER_NAME    = EARTH
REF_FRAME      = TEME
TIME_SYSTEM    = UTC
MEAN_ELEMENT_THEORY = SGP/SGP4

EPOCH          = 2026-02-14T06:05:34.744704
MEAN_MOTION    = 16.05078041
ECCENTRICITY   = .0003532
INCLINATION    = 97.2822
RA_OF_ASC_NODE = 155.4135
ARG_OF_PERICENTER = 112.3543
MEAN_ANOMALY   = 247.8113

EPHEMERIS_TYPE = 0
CLASSIFICATION_TYPE = U
NORAD_CAT_ID   = 67694
ELEMENT_SET_NO = 999
REV_AT_EPOCH   = 224
BSTAR          = .81573E-3
MEAN_MOTION_DOT = .555075E-2
MEAN_MOTION_DDOT = .14883E-3

CCSDS_OMM_VERS = 2.0
CREATION_DATE  = 
ORIGINATOR     = 

OBJECT_NAME    = STARLINK-36750
OBJECT_ID      = 2026-025C
CENTER_NAME    = EARTH
REF_FRAME      = TEME
TIME_SYSTEM    = UTC
MEAN_ELEMENT_THEORY = SGP/SGP4

EPOCH          = 2026-02-14T01:38:31.192512
MEAN_MOTION    = 16.04736633
ECCENTRICITY   = .00011245
INCLINATION    = 97.2817
RA_OF_ASC_NODE = 155.2077
ARG_OF_PERICENTER = 137.7676
MEAN_ANOMALY   = 222.3691

EPHEMERIS_TYPE = 0
CLASSIFICATION_TYPE = U
NORAD_CAT_ID   = 67695
ELEMENT_SET_NO = 999
REV_AT_EPOCH   = 220
BSTAR          = .93099506E-3
MEAN_MOTION_DOT = .619808E-2
MEAN_MOTION_DDOT = .18706607E-3

CCSDS_OMM_VERS = 2.0
CREATION_DATE  = 
ORIGINATOR     = 

OBJECT_NAME    = STARLINK-36401
OBJECT_ID      = 2026-025D
CENTER_NAME    = EARTH
REF_FRAME      = TEME
TIME_SYSTEM    = UTC
MEAN_ELEMENT_THEORY = SGP/SGP4

EPOCH          = 2026-02-11T16:00:01.999584
MEAN_MOTION    = 16.09617568
ECCENTRICITY   = .00013116
INCLINATION    = 97.2834
RA_OF_ASC_NODE = 152.5655
ARG_OF_PERICENTER = 70.6850
MEAN_ANOMALY   = 83.4290

EPHEMERIS_TYPE = 0
CLASSIFICATION_TYPE = U
NORAD_CAT_ID   = 67696
ELEMENT_SET_NO = 999
REV_AT_EPOCH   = 166
BSTAR          = -.8675898E-3
MEAN_MOTION_DOT = -.784211E-2
MEAN_MOTION_DDOT = .23474999E-3

CCSDS_OMM_VERS = 2.0
CREATION_DATE  = 
ORIGINATOR     = 

OBJECT_NAME    = STARLINK-36704
OBJECT_ID      = 2026-025E
CENTER_NAME    = EARTH
REF_FRAME      = TEME
TIME_SYSTEM    = UTC
MEAN_ELEMENT_THEORY = SGP/SGP4

EPOCH          = 2026-02-11T16:00:01.999584
MEAN_MOTION    = 16.09927722
ECCENTRICITY   = .00013574
INCLINATION    = 97.2831
RA_OF_ASC_NODE = 152.5663
ARG_OF_PERICENTER = 56.7193
MEAN_ANOMALY   = 99.2680

EPHEMERIS_TYPE = 0
CLASSIFICATION_TYPE = U
NORAD_CAT_ID   = 67697
ELEMENT_SET_NO = 999
REV_AT_EPOCH   = 166
BSTAR          = -.83082541E-3
MEAN_MOTION_DOT = -.766309E-2
MEAN_MOTION_DDOT = .22583167E-3

CCSDS_OMM_VERS = 2.0
CREATION_DATE  = 
ORIGINATOR     = 

OBJECT_NAME    = STARLINK-36697
OBJECT_ID      = 2026-025F
CENTER_NAME    = EARTH
REF_FRAME      = TEME
TIME_SYSTEM    = UTC
MEAN_ELEMENT_THEORY = SGP/SGP4

EPOCH          = 2026-02-14T06:04:22.339776
MEAN_MOTION    = 16.05454148
ECCENTRICITY   = .0003873
INCLINATION    = 97.2812
RA_OF_ASC_NODE = 155.4142
ARG_OF_PERICENTER = 114.4445
MEAN_ANOMALY   = 245.7241

EPHEMERIS_TYPE = 0
CLASSIFICATION_TYPE = U
NORAD_CAT_ID   = 67698
ELEMENT_SET_NO = 999
REV_AT_EPOCH   = 223
BSTAR          = .89804E-3
MEAN_MOTION_DOT = .624914E-2
MEAN_MOTION_DDOT = .19262E-3

CCSDS_OMM_VERS = 2.0
CREATION_DATE  = 
ORIGINATOR     = 

OBJECT_NAME    = STARLINK-36716
OBJECT_ID      = 2026-025G
CENTER_NAME    = EARTH
REF_FRAME      = TEME
TIME_SYSTEM    = UTC
MEAN_ELEMENT_THEORY = SGP/SGP4

EPOCH          = 2026-02-14T06:03:47.163744
MEAN_MOTION    = 16.05634695
ECCENTRICITY   = .0002113
INCLINATION    = 97.2803
RA_OF_ASC_NODE = 155.4142
ARG_OF_PERICENTER = 350.8311
MEAN_ANOMALY   = 9.2932

EPHEMERIS_TYPE = 0
CLASSIFICATION_TYPE = U
NORAD_CAT_ID   = 67699
ELEMENT_SET_NO = 999
REV_AT_EPOCH   = 224
BSTAR          = .76966E-3
MEAN_MOTION_DOT = .541485E-2
MEAN_MOTION_DDOT = .14252E-3

CCSDS_OMM_VERS = 2.0
CREATION_DATE  = 
ORIGINATOR     = 

OBJECT_NAME    = STARLINK-36712
OBJECT_ID      = 2026-025H
CENTER_NAME    = EARTH
REF_FRAME      = TEME
TIME_SYSTEM    = UTC
MEAN_ELEMENT_THEORY = SGP/SGP4

EPOCH          = 2026-02-11T16:00:01.999584
MEAN_MOTION    = 16.10321202
ECCENTRICITY   = .00011853
INCLINATION    = 97.2831
RA_OF_ASC_NODE = 152.5673
ARG_OF_PERICENTER = 58.2875
MEAN_ANOMALY   = 100.2798

EPHEMERIS_TYPE = 0
CLASSIFICATION_TYPE = U
NORAD_CAT_ID   = 67700
ELEMENT_SET_NO = 999
REV_AT_EPOCH   = 161
BSTAR          = -.78465244E-3
MEAN_MOTION_DOT = -.742587E-2
MEAN_MOTION_DDOT = .21414867E-3

CCSDS_OMM_VERS = 2.0
CREATION_DATE  = 
ORIGINATOR     = 

OBJECT_NAME    = STARLINK-36713
OBJECT_ID      = 2026-025J
CENTER_NAME    = EARTH
REF_FRAME      = TEME
TIME_SYSTEM    = UTC
MEAN_ELEMENT_THEORY = SGP/SGP4

EPOCH          = 2026-02-11T16:00:01.999584
MEAN_MOTION    = 16.10465067
ECCENTRICITY   = .00015465
INCLINATION    = 97.2829
RA_OF_ASC_NODE = 152.5680
ARG_OF_PERICENTER = 59.7434
MEAN_ANOMALY   = 99.7040

EPHEMERIS_TYPE = 0
CLASSIFICATION_TYPE = U
NORAD_CAT_ID   = 67701
ELEMENT_SET_NO = 999
REV_AT_EPOCH   = 182
BSTAR          = -.77891528E-3
MEAN_MOTION_DOT = -.744148E-2
MEAN_MOTION_DDOT = .21539703E-3

